FENGYUN 1C DEB          
1 37403U 99025EFV 17345.85963770  .00007158  00000-0  86287-3 0  9992
2 37403  98.9239 230.2882 0036820  34.6525 325.7074 14.83713411468940
